[
    {
        "Altitude(m)": 611967.2120139555,
        "Argument of Periapsis(deg)": 0.0,
        "Eccentricity": 0.0,
        "Inclination(deg)": 60.0,
        "Latitude(deg)": 59.14026185576304,
        "Longitude(deg)": 101.09208265863397,
        "Mean Anomaly(deg)": 98.18179999999998,
        "RAAN(deg)": 95.0,
        "Satellite Name": "Test1 424",
        "Satellite Number": 424,
        "Semi-Major Axis(m)": 6980739.136638005,
        "Time(s)": 0
    },
    {
        "Altitude(m)": 611934.4118680664,
        "Argument of Periapsis(deg)": 0.00010418945913296404,
        "Eccentricity": 0.0,
        "Inclination(deg)": 60.0,
        "Latitude(deg)": 58.98662373048515,
        "Longitude(deg)": 102.21533149347621,
        "Mean Anomaly(deg)": 98.80190614546183,
        "RAAN(deg)": 94.99957995086027,
        "Satellite Name": "Test1 424",
        "Satellite Number": 424,
        "Semi-Major Axis(m)": 6980739.136638005,
        "Time(s)": 10
    }
]